OBJECT_NAME,OBJECT_ID,EPOCH,MEAN_MOTION,ECCENTRICITY,INCLINATION,RA_OF_ASC_NODE,ARG_OF_PERICENTER,MEAN_ANOMALY,EPHEMERIS_TYPE,CLASSIFICATION_TYPE,NORAD_CAT_ID,ELEMENT_SET_NO,REV_AT_EPOCH,BSTAR,MEAN_MOTION_DOT,MEAN_MOTION_DDOT
SPACEMOBILE-004,2024-163E,2026-07-21T06:34:01.498944,15.20649512,.00051579,52.9720,152.1723,251.3714,108.6720,0,U,61049,999,10295,.6885481E-3,.15015E-3,0
CZ-8A R/B,2025-231K,2026-07-21T13:41:00.844224,14.30163511,.0116541,50.0030,253.0366,345.0655,14.6831,0,U,66004,999,3986,.31379056E-4,-.77E-6,0
SZ-21 MODULE,2025-246C,2026-07-21T01:51:44.850816,15.79230958,.00093435,41.4721,95.7888,257.2941,102.6860,0,U,66515,999,3909,.22380535E-3,.41374E-3,0
SPACEMOBILE-006,2025-309A,2026-07-21T04:47:25.938528,15.18677771,.00095043,52.9948,175.8266,235.7559,124.2535,0,U,67232,999,3176,.12567808E-3,.2319E-4,0
SPACEMOBILE-008,2026-139A,2026-07-21T10:17:49.411968,15.12809290,.00052979,52.9953,107.1053,71.2526,288.9040,0,U,69589,999,516,.3492402E-4,.319E-5,0
SPACEMOBILE-009,2026-139B,2026-07-21T10:21:16.343424,15.12709273,.00055674,52.9944,107.1141,67.5981,292.5599,0,U,69590,999,516,.85768322E-4,.1219E-4,0
SPACEMOBILE-010,2026-139C,2026-07-21T10:26:43.642176,15.12546197,.00055616,52.9950,107.1407,60.2042,299.9501,0,U,69591,999,517,.83596792E-4,.1174E-4,0
